start=new Date('2022-05-26T00:00:00.000Z').valueOf();
sats=[{"NORAD_CAT_ID":"47673","TIME_SYSTEM":"UTC","GP_ID":"204502060","CENTER_NAME":"EARTH","TLE_LINE1":"1 47673U 21012BF  22145.47210252  .00000715  00000-0  66930-4 0  9991","REV_AT_EPOCH":"7162","RCS_SIZE":"LARGE","APOAPSIS":"548.507","EPHEMERIS_TYPE":"0","CLASSIFICATION_TYPE":"U","MEAN_MOTION_DDOT":"0.0000000000000","REF_FRAME":"TEME","MEAN_ELEMENT_THEORY":"SGP4","EPOCH":"2022-05-25T11:19:49.657728","FILE":"3463908","LAUNCH_DATE":"2021-02-16","TLE_LINE2":"2 47673  53.0551 145.6243 0001853  49.1695 310.9454 15.06396638 71623","MEAN_MOTION":"15.06396638","MEAN_MOTION_DOT":"0.00000715","ECCENTRICITY":"0.00018530","ARG_OF_PERICENTER":"49.1695","PERIAPSIS":"545.941","INCLINATION":"53.0551","OBJECT_TYPE":"PAYLOAD","ELEMENT_SET_NO":"999","DECAY_DATE":null,"OBJECT_NAME":"STARLINK-2066","BSTAR":"0.00006693000000","COUNTRY_CODE":"US","MEAN_ANOMALY":"310.9454","PERIOD":"95.592","RA_OF_ASC_NODE":"145.6243","SEMIMAJOR_AXIS":"6925.359","SITE":"AFETR","OBJECT_ID":"2021-012BF"},{"PERIOD":"95.592","MEAN_ANOMALY":"305.6012","RA_OF_ASC_NODE":"145.5360","COUNTRY_CODE":"US","BSTAR":"-0.00006355300000","SITE":"AFETR","OBJECT_ID":"2021-012BG","SEMIMAJOR_AXIS":"6925.327","MEAN_MOTION_DOT":"-0.00001228","ECCENTRICITY":"0.00017070","ARG_OF_PERICENTER":"54.5136","MEAN_MOTION":"15.06407116","TLE_LINE2":"2 47674  53.0546 145.5360 0001707  54.5136 305.6012 15.06407116 71114","LAUNCH_DATE":"2021-02-16","DECAY_DATE":null,"OBJECT_NAME":"STARLINK-2067","ELEMENT_SET_NO":"999","OBJECT_TYPE":"PAYLOAD","PERIAPSIS":"546.010","INCLINATION":"53.0546","REF_FRAME":"TEME","MEAN_ELEMENT_THEORY":"SGP4","CLASSIFICATION_TYPE":"U","MEAN_MOTION_DDOT":"0.0000000000000","RCS_SIZE":"LARGE","APOAPSIS":"548.374","EPHEMERIS_TYPE":"0","REV_AT_EPOCH":"7111","FILE":"3463423","EPOCH":"2022-05-25T11:41:03.859872","TIME_SYSTEM":"UTC","NORAD_CAT_ID":"47674","CENTER_NAME":"EARTH","TLE_LINE1":"1 47674U 21012BG  22145.48685023 -.00001228  00000-0 -63553-4 0  9995","GP_ID":"204471368"},{"BSTAR":"0.00000197970000","COUNTRY_CODE":"US","MEAN_ANOMALY":"311.8004","PERIOD":"95.593","RA_OF_ASC_NODE":"145.5808","SEMIMAJOR_AXIS":"6925.382","SITE":"AFETR","OBJECT_ID":"2021-012BH","LAUNCH_DATE":"2021-02-16","TLE_LINE2":"2 47675  53.0538 145.5808 0002009  48.3157 311.8004 15.06389250 71638","MEAN_MOTION":"15.06389250","MEAN_MOTION_DOT":"-0.00000252","ARG_OF_PERICENTER":"48.3157","ECCENTRICITY":"0.00020090","PERIAPSIS":"545.855","INCLINATION":"53.0538","OBJECT_TYPE":"PAYLOAD","ELEMENT_SET_NO":"999","DECAY_DATE":null,"OBJECT_NAME":"STARLINK-2078","REV_AT_EPOCH":"7163","RCS_SIZE":"LARGE","APOAPSIS":"548.638","EPHEMERIS_TYPE":"0","CLASSIFICATION_TYPE":"U","MEAN_MOTION_DDOT":"0.0000000000000","REF_FRAME":"TEME","MEAN_ELEMENT_THEORY":"SGP4","EPOCH":"2022-05-25T11:30:27.192096","FILE":"3463908","NORAD_CAT_ID":"47675","TIME_SYSTEM":"UTC","GP_ID":"204503562","CENTER_NAME":"EARTH","TLE_LINE1":"1 47675U 21012BH  22145.47948139 -.00000252  00000-0  19797-5 0  9992"},{"TLE_LINE1":"1 47676U 21012BJ  22145.87294406  .00000496  00000-0  52220-4 0  9994","CENTER_NAME":"EARTH","GP_ID":"204537201","TIME_SYSTEM":"UTC","NORAD_CAT_ID":"47676","FILE":"3464394","EPOCH":"2022-05-25T20:57:02.366784","MEAN_ELEMENT_THEORY":"SGP4","REF_FRAME":"TEME","MEAN_MOTION_DDOT":"0.0000000000000","CLASSIFICATION_TYPE":"U","EPHEMERIS_TYPE":"0","APOAPSIS":"548.561","RCS_SIZE":"LARGE","REV_AT_EPOCH":"7321","OBJECT_NAME":"STARLINK-2083","DECAY_DATE":null,"ELEMENT_SET_NO":"999","OBJECT_TYPE":"PAYLOAD","INCLINATION":"53.0552","PERIAPSIS":"545.857","ARG_OF_PERICENTER":"45.3962","ECCENTRICITY":"0.00019520","MEAN_MOTION_DOT":"0.00000496","MEAN_MOTION":"15.06401588","TLE_LINE2":"2 47676  53.0552  33.8283 0001952  45.3962 314.7186 15.06401588 73216","LAUNCH_DATE":"2021-02-16","OBJECT_ID":"2021-012BJ","SITE":"AFETR","SEMIMAJOR_AXIS":"6925.344","PERIOD":"95.592","MEAN_ANOMALY":"314.7186","RA_OF_ASC_NODE":"33.8283","COUNTRY_CODE":"US","BSTAR":"0.00005222000000"},{"RA_OF_ASC_NODE":"165.6507","PERIOD":"95.592","MEAN_ANOMALY":"315.1074","BSTAR":"0.00016513000000","COUNTRY_CODE":"US","SEMIMAJOR_AXIS":"6925.360","SITE":"AFETR","OBJECT_ID":"2021-012BK","MEAN_MOTION":"15.06396182","ARG_OF_PERICENTER":"45.0073","ECCENTRICITY":"0.00019580","MEAN_MOTION_DOT":"0.00002179","LAUNCH_DATE":"2021-02-16","TLE_LINE2":"2 47677  53.0533 165.6507 0001958  45.0073 315.1074 15.06396182 71341","ELEMENT_SET_NO":"999","OBJECT_NAME":"STARLINK-2090","DECAY_DATE":null,"INCLINATION":"53.0533","PERIAPSIS":"545.869","OBJECT_TYPE":"PAYLOAD","MEAN_MOTION_DDOT":"0.0000000000000","CLASSIFICATION_TYPE":"U","MEAN_ELEMENT_THEORY":"SGP4","REF_FRAME":"TEME","REV_AT_EPOCH":"7134","EPHEMERIS_TYPE":"0","RCS_SIZE":"LARGE","APOAPSIS":"548.581","FILE":"3463908","EPOCH":"2022-05-25T11:11:51.906336","TIME_SYSTEM":"UTC","NORAD_CAT_ID":"47677","TLE_LINE1":"1 47677U 21012BK  22145.46657299  .00002179  00000-0  16513-3 0  9997","CENTER_NAME":"EARTH","GP_ID":"204502561"},{"NORAD_CAT_ID":"47679","TIME_SYSTEM":"UTC","GP_ID":"204502812","CENTER_NAME":"EARTH","TLE_LINE1":"1 47679U 21012BM  22145.49512450  .00000060  00000-0  22930-4 0  9999","REV_AT_EPOCH":"7136","RCS_SIZE":"LARGE","APOAPSIS":"548.416","EPHEMERIS_TYPE":"0","CLASSIFICATION_TYPE":"U","MEAN_MOTION_DDOT":"0.0000000000000","REF_FRAME":"TEME","MEAN_ELEMENT_THEORY":"SGP4","EPOCH":"2022-05-25T11:52:58.756800","FILE":"3463908","LAUNCH_DATE":"2021-02-16","TLE_LINE2":"2 47679  53.0539 165.5232 0001676  56.4434 303.6715 15.06386474 71366","MEAN_MOTION":"15.06386474","MEAN_MOTION_DOT":"0.00000060","ARG_OF_PERICENTER":"56.4434","ECCENTRICITY":"0.00016760","PERIAPSIS":"546.094","INCLINATION":"53.0539","OBJECT_TYPE":"PAYLOAD","ELEMENT_SET_NO":"999","DECAY_DATE":null,"OBJECT_NAME":"STARLINK-2095","BSTAR":"0.00002293000000","COUNTRY_CODE":"US","PERIOD":"95.593","MEAN_ANOMALY":"303.6715","RA_OF_ASC_NODE":"165.5232","SEMIMAJOR_AXIS":"6925.390","OBJECT_ID":"2021-012BM","SITE":"AFETR"},{"LAUNCH_DATE":"2021-03-04","TLE_LINE2":"2 47722  53.0519 288.9408 0001572  76.3929 283.7235 15.06406776 69419","MEAN_MOTION_DOT":"0.00010022","ECCENTRICITY":"0.00015720","ARG_OF_PERICENTER":"76.3929","MEAN_MOTION":"15.06406776","OBJECT_TYPE":"PAYLOAD","PERIAPSIS":"546.104","INCLINATION":"53.0519","DECAY_DATE":null,"OBJECT_NAME":"STARLINK-2068","ELEMENT_SET_NO":"999","COUNTRY_CODE":"US","BSTAR":"0.00069065000000","RA_OF_ASC_NODE":"288.9408","PERIOD":"95.592","MEAN_ANOMALY":"283.7235","OBJECT_ID":"2021-017A","SITE":"AFETR","SEMIMAJOR_AXIS":"6925.328","NORAD_CAT_ID":"47722","TIME_SYSTEM":"UTC","GP_ID":"204538457","CENTER_NAME":"EARTH","TLE_LINE1":"1 47722U 21017A   22145.84666240  .00010022  00000-0  69065-3 0  9997","RCS_SIZE":"LARGE","APOAPSIS":"548.281","EPHEMERIS_TYPE":"0","REV_AT_EPOCH":"6941","REF_FRAME":"TEME","MEAN_ELEMENT_THEORY":"SGP4","CLASSIFICATION_TYPE":"U","MEAN_MOTION_DDOT":"0.0000000000000","EPOCH":"2022-05-25T20:19:11.631360","FILE":"3464394"},{"EPOCH":"2022-05-25T21:03:41.155488","FILE":"3464394","REV_AT_EPOCH":"7029","APOAPSIS":"548.253","RCS_SIZE":"LARGE","EPHEMERIS_TYPE":"0","CLASSIFICATION_TYPE":"U","MEAN_MOTION_DDOT":"0.0000000000000","REF_FRAME":"TEME","MEAN_ELEMENT_THEORY":"SGP4","GP_ID":"204537206","CENTER_NAME":"EARTH","TLE_LINE1":"1 47723U 21017B   22145.87755967  .00002237  00000-0  16908-3 0  9993","NORAD_CAT_ID":"47723","TIME_SYSTEM":"UTC","SEMIMAJOR_AXIS":"6925.369","SITE":"AFETR","OBJECT_ID":"2021-017B","BSTAR":"0.00016908000000","COUNTRY_CODE":"US","MEAN_ANOMALY":"292.4831","PERIOD":"95.593","RA_OF_ASC_NODE":"223.8041","PERIAPSIS":"546.215","INCLINATION":"53.0539","OBJECT_TYPE":"PAYLOAD","ELEMENT_SET_NO":"999","DECAY_DATE":null,"OBJECT_NAME":"STARLINK-2107","TLE_LINE2":"2 47723  53.0539 223.8041 0001471  67.6313 292.4831 15.06393301 70297","LAUNCH_DATE":"2021-03-04","MEAN_MOTION":"15.06393301","MEAN_MOTION_DOT":"0.00002237","ARG_OF_PERICENTER":"67.6313","ECCENTRICITY":"0.00014710"},{"EPOCH":"2022-05-25T17:10:08.518368","FILE":"3464394","EPHEMERIS_TYPE":"0","APOAPSIS":"548.187","RCS_SIZE":"LARGE","REV_AT_EPOCH":"7023","MEAN_ELEMENT_THEORY":"SGP4","REF_FRAME":"TEME","MEAN_MOTION_DDOT":"0.0000000000000","CLASSIFICATION_TYPE":"U","GP_ID":"204537456","TLE_LINE1":"1 47724U 21017C   22145.71537637  .00001277  00000-0  10467-3 0  9996","CENTER_NAME":"EARTH","NORAD_CAT_ID":"47724","TIME_SYSTEM":"UTC","OBJECT_ID":"2021-017C","SITE":"AFETR","SEMIMAJOR_AXIS":"6925.387","COUNTRY_CODE":"US","BSTAR":"0.00010467000000","MEAN_ANOMALY":"288.9823","PERIOD":"95.593","RA_OF_ASC_NODE":"224.5271","OBJECT_TYPE":"PAYLOAD","INCLINATION":"53.0548","PERIAPSIS":"546.318","OBJECT_NAME":"STARLINK-2116","DECAY_DATE":null,"ELEMENT_SET_NO":"999","TLE_LINE2":"2 47724  53.0548 224.5271 0001350  71.1312 288.9823 15.06387298 70239","LAUNCH_DATE":"2021-03-04","ARG_OF_PERICENTER":"71.1312","ECCENTRICITY":"0.00013500","MEAN_MOTION_DOT":"0.00001277","MEAN_MOTION":"15.06387298"},{"FILE":"3464394","EPOCH":"2022-05-25T16:23:41.438400","MEAN_ELEMENT_THEORY":"SGP4","REF_FRAME":"TEME","MEAN_MOTION_DDOT":"0.0000000000000","CLASSIFICATION_TYPE":"U","EPHEMERIS_TYPE":"0","APOAPSIS":"548.196","RCS_SIZE":"LARGE","REV_AT_EPOCH":"6926","TLE_LINE1":"1 47725U 21017D   22145.68311850  .00000673  00000-0  64101-4 0  9994","CENTER_NAME":"EARTH","GP_ID":"204537707","TIME_SYSTEM":"UTC","NORAD_CAT_ID":"47725","SITE":"AFETR","OBJECT_ID":"2021-017D","SEMIMAJOR_AXIS":"6925.348","RA_OF_ASC_NODE":"294.6753","PERIOD":"95.592","MEAN_ANOMALY":"303.1625","COUNTRY_CODE":"US","BSTAR":"0.00006410100000","OBJECT_NAME":"STARLINK-2125","DECAY_DATE":null,"ELEMENT_SET_NO":"999","OBJECT_TYPE":"PAYLOAD","INCLINATION":"53.0557","PERIAPSIS":"546.230","ECCENTRICITY":"0.00014190","ARG_OF_PERICENTER":"56.9500","MEAN_MOTION_DOT":"0.00000673","MEAN_MOTION":"15.06400130","TLE_LINE2":"2 47725  53.0557 294.6753 0001419  56.9500 303.1625 15.06400130 69261","LAUNCH_DATE":"2021-03-04"}];
